NORAD_CAT_ID,OBJECT_NAME,OBJECT_TYPE,EPOCH,MEAN_MOTION,ECCENTRICITY,INCLINATION,RA_OF_ASC_NODE,ARG_OF_PERICENTER,MEAN_ANOMALY,BSTAR,MEAN_MOTION_DOT,MEAN_MOTION_DDOT,TLE_LINE0,TLE_LINE1,TLE_LINE2,SEMIMAJOR_AXIS,PERIOD,APOGEE,PERIGEE,DECAYED
51856.0,STARLINK-3568,PAYLOAD,2023-09-12 23:11:24,15.08839749,0.0001389,53.217,138.5505,99.5719,260.543,5.2391e-05,5.46e-06,0.0,0 STARLINK-3568,1 51856U 22022E   23255.96626018  .00000546  00000-0  52391-4 0  9997,2 51856  53.2170 138.5505 0001389  99.5719 260.5430 15.08839749 85864,6917.881,95.438,540.707,538.785,0.0
51856.0,STARLINK-3568,PAYLOAD,2023-09-13 21:26:48,15.08845451,0.0001232,53.2168,134.3873,97.7568,262.3564,3.7212e-05,3.04e-06,0.0,0 STARLINK-3568,1 51856U 22022E   23256.89361637  .00000304  00000-0  37212-4 0  9990,2 51856  53.2168 134.3873 0001232  97.7568 262.3564 15.08845451 86004,6917.864,95.437,540.581,538.876,0.0
51856.0,STARLINK-3568,PAYLOAD,2023-09-13 23:02:11,15.0884765,0.0001228,53.2169,134.0912,101.2856,258.8274,5.6212e-05,6.07e-06,0.0,0 STARLINK-3568,1 51856U 22022E   23256.95985435  .00000607  00000-0  56212-4 0  9992,2 51856  53.2169 134.0912 0001228 101.2856 258.8274 15.08847650 86014,6917.857,95.437,540.572,538.872,0.0
51856.0,STARLINK-3568,PAYLOAD,2023-09-14 19:42:13,15.08832485,0.0001264,53.2165,130.2249,101.4369,258.6765,-4.0187e-05,-9.27e-06,0.0,0 STARLINK-3568,1 51856U 22022E   23257.82098916 -.00000927  00000-0 -40187-4 0  9999,2 51856  53.2165 130.2249 0001264 101.4369 258.6765 15.08832485 86149,6917.903,95.438,540.643,538.894,0.0
51856.0,STARLINK-3568,PAYLOAD,2023-09-14 21:17:36,15.08833241,0.0001235,53.2165,129.9262,97.3207,262.7926,-3.0289e-05,-7.7e-06,0.0,0 STARLINK-3568,1 51856U 22022E   23257.88722885 -.00000770  00000-0 -30289-4 0  9992,2 51856  53.2165 129.9262 0001235  97.3207 262.7926 15.08833241 86158,6917.901,95.438,540.62,538.912,0.0
51856.0,STARLINK-3568,PAYLOAD,2023-09-15 02:03:46,15.08833216,0.0001263,53.2166,129.0334,89.1465,270.9672,-3.4079e-05,-8.3e-06,0.0,0 STARLINK-3568,1 51856U 22022E   23258.08595008 -.00000830  00000-0 -34079-4 0  9998,2 51856  53.2166 129.0334 0001263  89.1465 270.9672 15.08833216 86180,6917.901,95.438,540.64,538.892,0.0
51856.0,STARLINK-3568,PAYLOAD,2023-09-16 00:19:08,15.08853643,0.0001327,53.2167,124.8703,99.7033,260.4109,8.4829e-05,1.063e-05,0.0,0 STARLINK-3568,1 51856U 22022E   23259.01329401  .00001063  00000-0  84829-4 0  9999,2 51856  53.2167 124.8703 0001327  99.7033 260.4109 15.08853643 86324,6917.839,95.437,540.622,538.786,0.0
51856.0,STARLINK-3568,PAYLOAD,2023-09-17 00:09:57,15.08834748,0.0001395,53.2169,120.4093,84.2268,275.8883,0.0001001,1.305e-05,0.0,0 STARLINK-3568,1 51856U 22022E   23260.00691111  .00001305  00000-0  10010-3 0  9999,2 51856  53.2169 120.4093 0001395  84.2268 275.8883 15.08834748 86474,6917.896,95.438,540.726,538.796,0.0
51856.0,STARLINK-3568,PAYLOAD,2023-09-18 00:00:42,15.0885649,0.0001313,53.2169,115.9468,90.1023,270.012,8.3046e-05,1.035e-05,0.0,0 STARLINK-3568,1 51856U 22022E   23261.00049697  .00001035  00000-0  83046-4 0  9996,2 51856  53.2169 115.9468 0001313  90.1023 270.0120 15.08856490 86620,6917.83,95.437,540.603,538.787,0.0
51856.0,STARLINK-3568,PAYLOAD,2023-09-18 17:29:58,15.08841163,0.0001505,53.2177,112.6726,102.2315,257.8846,9.1934e-05,1.175e-05,0.0,0 STARLINK-3568,1 51856U 22022E   23261.72914513  .00001175  00000-0  91934-4 0  9993,2 51856  53.2177 112.6726 0001505 102.2315 257.8846 15.08841163 86733,6917.877,95.437,540.783,538.701,0.0
51856.0,STARLINK-3568,PAYLOAD,2023-09-18 20:40:44,15.08843211,0.0001423,53.2175,112.0776,101.0667,259.0485,8.1808e-05,1.014e-05,0.0,0 STARLINK-3568,1 51856U 22022E   23261.86162397  .00001014  00000-0  81808-4 0  9994,2 51856  53.2175 112.0776 0001423 101.0667 259.0485 15.08843211 86757,6917.871,95.437,540.72,538.751,0.0
51856.0,STARLINK-3568,PAYLOAD,2023-09-19 18:56:07,15.0883954,0.0001592,53.2176,107.9151,106.5307,253.586,0.00016238,2.297e-05,0.0,0 STARLINK-3568,1 51856U 22022E   23262.78898021  .00002297  00000-0  16238-3 0  9994,2 51856  53.2176 107.9151 0001592 106.5307 253.5860 15.08839540 86897,6917.882,95.438,540.848,538.645,0.0
51856.0,STARLINK-3568,PAYLOAD,2023-09-19 22:06:54,15.08848852,0.0001491,53.217,107.3216,101.4309,258.6851,3.1527e-05,2.14e-06,0.0,0 STARLINK-3568,1 51856U 22022E   23262.92145839  .00000214  00000-0  31527-4 0  9998,2 51856  53.2170 107.3216 0001491 101.4309 258.6851 15.08848852 86916,6917.853,95.437,540.75,538.687,0.0
51856.0,STARLINK-3568,PAYLOAD,2023-09-20 18:46:56,15.08820115,0.0001563,53.2172,103.455,109.6255,250.4906,0.0001044,1.373e-05,0.0,0 STARLINK-3568,1 51856U 22022E   23263.78259489  .00001373  00000-0  10440-3 0  9997,2 51856  53.2172 103.4550 0001563 109.6255 250.4906 15.08820115 87044,6917.941,95.439,540.887,538.725,0.0
51856.0,STARLINK-3568,PAYLOAD,2023-09-20 20:22:19,15.08829288,0.0001504,53.2172,103.1586,103.8883,256.2277,-5.2172e-05,-1.118e-05,0.0,0 STARLINK-3568,1 51856U 22022E   23263.84883475 -.00001118  00000-0 -52172-4 0  9990,2 51856  53.2172 103.1586 0001504 103.8883 256.2277 15.08829288 87054,6917.913,95.438,540.819,538.738,0.0
51856.0,STARLINK-3568,PAYLOAD,2023-09-21 13:51:33,15.08833667,0.0001451,53.2171,99.8869,95.4752,264.6406,3.3899e-06,-2.34e-06,0.0,0 STARLINK-3568,1 51856U 22022E   23264.57747409 -.00000234  00000-0  33899-5 0  9990,2 51856  53.2171  99.8869 0001451  95.4752 264.6406 15.08833667 87165,6917.9,95.438,540.769,538.761,0.0
51856.0,STARLINK-3568,PAYLOAD,2023-09-21 18:37:43,15.08838312,0.0001396,53.2168,98.9959,103.8784,256.2363,-1.0971e-05,-4.63e-06,0.0,0 STARLINK-3568,1 51856U 22022E   23264.77619243 -.00000463  00000-0 -10971-4 0  9996,2 51856  53.2168  98.9959 0001396 103.8784 256.2363 15.08838312 87192,6917.886,95.438,540.716,538.785,0.0
51856.0,STARLINK-3568,PAYLOAD,2023-09-22 05:45:24,15.08839032,0.000126,53.2162,96.9168,96.1595,263.954,4.9533e-05,5.01e-06,0.0,0 STARLINK-3568,1 51856U 22022E   23265.23987199  .00000501  00000-0  49533-4 0  9993,2 51856  53.2162  96.9168 0001260  96.1595 263.9540 15.08839032 87260,6917.883,95.438,540.62,538.877,0.0
51856.0,STARLINK-3568,PAYLOAD,2023-09-22 21:39:15,15.08844969,0.0001269,53.2161,93.9431,91.0859,269.0279,0.0002211,3.233e-05,0.0,0 STARLINK-3568,1 51856U 22022E   23265.90226724  .00003233  00000-0  22110-3 0  9993,2 51856  53.2161  93.9431 0001269  91.0859 269.0279 15.08844969 87367,6917.865,95.437,540.608,538.852,0.0
51856.0,STARLINK-3568,PAYLOAD,2023-09-23 05:36:12,15.08837116,0.0001428,53.2165,92.4545,86.3997,273.7159,0.00013451,1.853e-05,0.0,0 STARLINK-3568,1 51856U 22022E   23266.23347531  .00001853  00000-0  13451-3 0  9994,2 51856  53.2165  92.4545 0001428  86.3997 273.7159 15.08837116 87419,6917.889,95.438,540.742,538.766,0.0
51856.0,STARLINK-3568,PAYLOAD,2023-09-24 13:23:54,15.08845173,0.0001427,53.2167,86.5096,88.1456,271.97,4.744e-05,4.67e-06,0.0,0 STARLINK-3568,1 51856U 22022E   23267.55827259  .00000467  00000-0  47440-4 0  9996,2 51856  53.2167  86.5096 0001427  88.1456 271.9700 15.08845173 87611,6917.865,95.437,540.717,538.742,0.0
51856.0,STARLINK-3568,PAYLOAD,2023-09-24 18:10:03,15.08849272,0.0001306,53.2167,85.6174,89.7298,270.3844,2.8686e-05,1.69e-06,0.0,0 STARLINK-3568,1 51856U 22022E   23267.75698989  .00000169  00000-0  28686-4 0  9994,2 51856  53.2167  85.6174 0001306  89.7298 270.3844 15.08849272 87644,6917.852,95.437,540.621,538.814,0.0
51856.0,STARLINK-3568,PAYLOAD,2023-09-24 19:45:26,15.0885115,0.0001308,53.2167,85.3199,89.1592,270.955,5.1111e-05,5.26e-06,0.0,0 STARLINK-3568,1 51856U 22022E   23267.82322778  .00000526  00000-0  51111-4 0  9998,2 51856  53.2167  85.3199 0001308  89.1592 270.9550 15.08851150 87650,6917.846,95.437,540.616,538.806,0.0
51856.0,STARLINK-3568,PAYLOAD,2023-09-25 11:39:18,15.08839641,0.0001537,53.217,82.346,80.3794,279.7372,7.9417e-05,9.76e-06,0.0,0 STARLINK-3568,1 51856U 22022E   23268.48563441  .00000976  00000-0  79417-4 0  9993,2 51856  53.2170  82.3460 0001537  80.3794 279.7372 15.08839641 87754,6917.881,95.438,540.81,538.683,0.0
51856.0,STARLINK-3568,PAYLOAD,2023-09-25 18:00:50,15.08846653,0.0001364,53.2176,81.1562,93.771,266.3438,8.3994e-05,1.049e-05,0.0,0 STARLINK-3568,1 51856U 22022E   23268.75058899  .00001049  00000-0  83994-4 0  9996,2 51856  53.2176  81.1562 0001364  93.7710 266.3438 15.08846653 87794,6917.86,95.437,540.669,538.781,0.0
51856.0,STARLINK-3568,PAYLOAD,2023-09-25 22:46:59,15.0885158,0.0001457,53.2165,80.264,82.5295,277.5862,0.00014171,1.969e-05,0.0,0 STARLINK-3568,1 51856U 22022E   23268.94930428  .00001969  00000-0  14171-3 0  9995,2 51856  53.2165  80.2640 0001457  82.5295 277.5862 15.08851580 87820,6917.845,95.437,540.718,538.702,0.0
51856.0,STARLINK-3568,PAYLOAD,2023-09-26 14:40:52,15.08831637,0.0001454,53.2172,77.2922,74.1461,285.9692,-2.7769e-05,-7.3e-06,0.0,0 STARLINK-3568,1 51856U 22022E   23269.61172350 -.00000730  00000-0 -27769-4 0  9997,2 51856  53.2172  77.2922 0001454  74.1461 285.9692 15.08831637 87922,6917.906,95.438,540.777,538.765,0.0
51856.0,STARLINK-3568,PAYLOAD,2023-09-26 17:51:38,15.08836978,0.0001337,53.2171,76.6945,92.321,267.7935,-4.0811e-05,-9.37e-06,0.0,0 STARLINK-3568,1 51856U 22022E   23269.74419965 -.00000937  00000-0 -40811-4 0  9999,2 51856  53.2171  76.6945 0001337  92.3210 267.7935 15.08836978 87946,6917.89,95.438,540.68,538.83,0.0
51856.0,STARLINK-3568,PAYLOAD,2023-09-26 21:02:25,15.08836403,0.0001375,53.2173,76.1002,86.8493,273.2656,-3.7271e-05,-8.81e-06,0.0,0 STARLINK-3568,1 51856U 22022E   23269.87668066 -.00000881  00000-0 -37271-4 0  9995,2 51856  53.2173  76.1002 0001375  86.8493 273.2656 15.08836403 87967,6917.891,95.438,540.708,538.805,0.0
51856.0,STARLINK-3568,PAYLOAD,2023-09-27 11:20:53,15.08838704,0.000148,53.216,73.4248,79.7526,280.3633,0.0001114,1.485e-05,0.0,0 STARLINK-3568,1 51856U 22022E   23270.47283943  .00001485  00000-0  11140-3 0  9995,2 51856  53.2160  73.4248 0001480  79.7526 280.3633 15.08838704 88051,6917.884,95.438,540.773,538.726,0.0
